{
  "type": "FeatureCollection",
  "features": [
    {
      "type": "Feature",
      "properties": { "type": "low_center", "label": "低気圧 998hPa SLW" },
      "geometry": { "type": "Point", "coordinates": [127.5, 46.2] }
    },
    {
      "type": "Feature",
      "properties": { "type": "low_center", "label": "低気圧 1010hPa" },
      "geometry": { "type": "Point", "coordinates": [141.8, 32.2] }
    },
    {
      "type": "Feature",
      "properties": { "type": "high_center", "label": "高気圧 1012hPa STNR" },
      "geometry": { "type": "Point", "coordinates": [128.5, 26.5] }
    },
    {
      "type": "Feature",
      "properties": { "type": "stationary_front", "label": "停滞前線" },
      "geometry": {
        "type": "LineString",
        "coordinates": [
          [132.3, 35.7], [133.8, 35.3], [135.0, 35.0], [135.9, 34.5],
          [137.3, 33.8], [138.8, 33.1], [140.3, 32.6], [141.8, 32.2],
          [143.5, 31.8], [145.5, 31.2], [147.5, 30.6]
        ]
      }
    }
  ]
}